NORAD_CAT_ID,OBJECT_NAME,OBJECT_TYPE,EPOCH,MEAN_MOTION,ECCENTRICITY,INCLINATION,RA_OF_ASC_NODE,ARG_OF_PERICENTER,MEAN_ANOMALY,BSTAR,MEAN_MOTION_DOT,MEAN_MOTION_DDOT,TLE_LINE0,TLE_LINE1,TLE_LINE2,SEMIMAJOR_AXIS,PERIOD,APOGEE,PERIGEE,DECAYED
50843.0,STARLINK-3325,PAYLOAD,2024-07-05 21:42:57,15.08839775,0.000107,53.2175,45.5304,88.4164,271.6951,2.0916e-06,-2.54e-06,0.0,0 STARLINK-3325,1 50843U 22001AS  24187.90482949 -.00000254  00000-0  20916-5 0  9997,2 50843  53.2175  45.5304 0001070  88.4164 271.6951 15.08839775137909,6917.881,95.438,540.486,539.006,0.0
50843.0,STARLINK-3325,PAYLOAD,2024-07-06 07:15:15,15.08846062,0.0001177,53.218,43.7468,91.8607,268.252,3.3758e-05,2.5e-06,0.0,0 STARLINK-3325,1 50843U 22001AS  24188.30226415  .00000250  00000-0  33758-4 0  9998,2 50843  53.2180  43.7468 0001177  91.8607 268.2520 15.08846062139165,6917.862,95.437,540.541,538.913,0.0
50843.0,STARLINK-3325,PAYLOAD,2024-07-06 19:58:21,15.08836294,0.0001438,53.2199,41.3724,102.063,258.0524,2.7685e-05,1.53e-06,0.0,0 STARLINK-3325,1 50843U 22001AS  24188.83219368  .00000153  00000-0  27685-4 0  9999,2 50843  53.2199  41.3724 0001438 102.0630 258.0524 15.08836294139241,6917.892,95.438,540.752,538.762,0.0
50843.0,STARLINK-3325,PAYLOAD,2024-07-06 21:33:44,15.08838878,0.000153,53.2196,41.0738,98.6037,261.5128,2.2927e-05,7.7e-07,0.0,0 STARLINK-3325,1 50843U 22001AS  24188.89843254  .00000077  00000-0  22927-4 0  9991,2 50843  53.2196  41.0738 0001530  98.6037 261.5128 15.08838878138051,6917.884,95.438,540.807,538.69,0.0
50843.0,STARLINK-3325,PAYLOAD,2024-07-07 07:06:03,15.08841511,0.0001462,53.2189,39.2853,80.0609,280.0548,-2.3418e-06,-3.25e-06,0.0,0 STARLINK-3325,1 50843U 22001AS  24189.29587160 -.00000325  00000-0 -23418-5 0  9992,2 50843  53.2189  39.2853 0001462  80.0609 280.0548 15.08841511138111,6917.876,95.437,540.752,538.729,0.0
50843.0,STARLINK-3325,PAYLOAD,2024-07-07 21:24:31,15.08842509,0.000128,53.2185,36.6091,79.9744,280.1393,3.5172e-05,2.72e-06,0.0,0 STARLINK-3325,1 50843U 22001AS  24189.89203213  .00000272  00000-0  35172-4 0  9990,2 50843  53.2185  36.6091 0001280  79.9744 280.1393 15.08842509139407,6917.873,95.437,540.623,538.852,0.0
50843.0,STARLINK-3325,PAYLOAD,2024-07-08 13:18:23,15.08837377,0.0001397,53.2186,33.6369,90.645,269.4702,0.00010819,1.434e-05,0.0,0 STARLINK-3325,1 50843U 22001AS  24190.55443295  .00001434  00000-0  10819-3 0  9992,2 50843  53.2186  33.6369 0001397  90.6450 269.4702 15.08837377138305,6917.888,95.438,540.72,538.787,0.0
50843.0,STARLINK-3325,PAYLOAD,2024-07-08 21:15:18,15.08845277,0.0001234,53.2178,32.1514,86.5517,273.5616,0.00010545,1.391e-05,0.0,0 STARLINK-3325,1 50843U 22001AS  24190.88562840  .00001391  00000-0  10545-3 0  9994,2 50843  53.2178  32.1514 0001234  86.5517 273.5616 15.08845277138353,6917.864,95.437,540.583,538.876,0.0
50843.0,STARLINK-3325,PAYLOAD,2024-07-09 13:09:10,15.08838087,0.0001205,53.2181,29.1769,87.9543,272.1587,6.0227e-05,6.71e-06,0.0,0 STARLINK-3325,1 50843U 22001AS  24191.54803265  .00000671  00000-0  60227-4 0  9990,2 50843  53.2181  29.1769 0001205  87.9543 272.1587 15.08838087139654,6917.886,95.438,540.585,538.918,0.0
50843.0,STARLINK-3325,PAYLOAD,2024-07-09 19:30:42,15.08842071,0.0001334,53.2187,27.9891,83.3529,276.7615,3.0276e-05,1.94e-06,0.0,0 STARLINK-3325,1 50843U 22001AS  24191.81299170  .00000194  00000-0  30276-4 0  9995,2 50843  53.2187  27.9891 0001334  83.3529 276.7615 15.08842071138490,6917.874,95.437,540.662,538.816,0.0
50843.0,STARLINK-3325,PAYLOAD,2024-07-09 22:41:28,15.08846323,0.0001464,53.2182,27.3917,91.0708,269.0452,3.8964e-05,3.32e-06,0.0,0 STARLINK-3325,1 50843U 22001AS  24191.94546817  .00000332  00000-0  38964-4 0  9998,2 50843  53.2182  27.3917 0001464  91.0708 269.0452 15.08846323139711,6917.861,95.437,540.739,538.713,0.0
50843.0,STARLINK-3325,PAYLOAD,2024-07-10 06:38:24,15.08841426,0.0001457,53.2171,25.9054,87.732,272.3839,2.9034e-05,1.74e-06,0.0,0 STARLINK-3325,1 50843U 22001AS  24192.27667108  .00000174  00000-0  29034-4 0  9994,2 50843  53.2171  25.9054 0001457  87.7320 272.3839 15.08841426138566,6917.876,95.437,540.749,538.733,0.0
50843.0,STARLINK-3325,PAYLOAD,2024-07-10 22:32:15,15.08845131,0.0001476,53.2174,22.9309,89.9487,270.1674,2.3283e-05,8.3e-07,0.0,0 STARLINK-3325,1 50843U 22001AS  24192.93906803  .00000083  00000-0  23283-4 0  9994,2 50843  53.2174  22.9309 0001476  89.9487 270.1674 15.08845131138669,6917.865,95.437,540.751,538.709,0.0
50843.0,STARLINK-3325,PAYLOAD,2024-07-11 19:12:16,15.0883499,0.0001708,53.2163,19.0655,87.777,272.3418,3.6982e-06,-2.29e-06,0.0,0 STARLINK-3325,1 50843U 22001AS  24193.80019642 -.00000229  00000-0  36982-5 0  9991,2 50843  53.2163  19.0655 0001708  87.7770 272.3418 15.08834990139995,6917.896,95.438,540.942,538.579,0.0
50843.0,STARLINK-3325,PAYLOAD,2024-07-12 12:41:30,15.08885845,0.0001262,53.2195,15.7915,79.0468,281.0666,-0.00063785,-0.00010438,0.0,0 STARLINK-3325,1 50843U 22001AS  24194.52882134 -.00010438  00000-0 -63785-3 0  9998,2 50843  53.2195  15.7915 0001262  79.0468 281.0666 15.08885845140107,6917.74,95.435,540.478,538.732,0.0
50843.0,STARLINK-3325,PAYLOAD,2024-07-12 19:03:03,15.08850152,0.0001455,53.2189,14.6019,89.4613,270.6546,4.5771e-05,4.41e-06,0.0,0 STARLINK-3325,1 50843U 22001AS  24194.79378886  .00000441  00000-0  45771-4 0  9998,2 50843  53.2189  14.6019 0001455  89.4613 270.6546 15.08850152140142,6917.849,95.437,540.721,538.708,0.0
50843.0,STARLINK-3325,PAYLOAD,2024-07-13 04:35:22,15.08835135,0.0001378,53.2189,12.8184,93.3231,266.7919,9.5795e-05,1.237e-05,0.0,0 STARLINK-3325,1 50843U 22001AS  24195.19123591  .00001237  00000-0  95795-4 0  9999,2 50843  53.2189  12.8184 0001378  93.3231 266.7919 15.08835135140200,6917.895,95.438,540.714,538.807,0.0
50843.0,STARLINK-3325,PAYLOAD,2024-07-13 12:32:18,15.08835258,0.0001371,53.2192,11.335,94.5486,265.5662,2.0396e-05,3.7e-07,0.0,0 STARLINK-3325,1 50843U 22001AS  24195.52244046  .00000037  00000-0  20396-4 0  9997,2 50843  53.2192  11.3350 0001371  94.5486 265.5662 15.08835258139050,6917.895,95.438,540.708,538.811,0.0
50843.0,STARLINK-3325,PAYLOAD,2024-07-13 18:53:51,15.08841819,0.0001413,53.2199,10.1474,101.8613,258.2537,8.125e-05,1.005e-05,0.0,0 STARLINK-3325,1 50843U 22001AS  24195.78739635  .00001005  00000-0  81250-4 0  9990,2 50843  53.2199  10.1474 0001413 101.8613 258.2537 15.08841819139096,6917.875,95.437,540.717,538.762,0.0
50843.0,STARLINK-3325,PAYLOAD,2024-07-14 10:47:42,15.08837674,0.0001312,53.2196,7.1729,92.1346,267.9796,8.8931e-05,1.128e-05,0.0,0 STARLINK-3325,1 50843U 22001AS  24196.44979894  .00001128  00000-0  88931-4 0  9996,2 50843  53.2196   7.1729 0001312  92.1346 267.9796 15.08837674140398,6917.887,95.438,540.66,538.845,0.0
50843.0,STARLINK-3325,PAYLOAD,2024-07-14 18:44:37,15.08844549,0.0001336,53.2193,5.6867,100.4052,259.709,4.9577e-05,5.01e-06,0.0,0 STARLINK-3325,1 50843U 22001AS  24196.78099518  .00000501  00000-0  49577-4 0  9996,2 50843  53.2193   5.6867 0001336 100.4052 259.7090 15.08844549139241,6917.866,95.437,540.656,538.807,0.0
50843.0,STARLINK-3325,PAYLOAD,2024-07-15 12:13:53,15.08828956,0.0001472,53.2192,2.4143,93.0274,267.0886,2.6443e-05,1.33e-06,0.0,0 STARLINK-3325,1 50843U 22001AS  24197.50964795  .00000133  00000-0  26443-4 0  9993,2 50843  53.2192   2.4143 0001472  93.0274 267.0886 15.08828956140551,6917.914,95.438,540.797,538.761,0.0
50843.0,STARLINK-3325,PAYLOAD,2024-07-15 20:10:48,15.08843394,0.0001351,53.2193,0.9271,87.2284,272.8863,6.9269e-05,8.15e-06,0.0,0 STARLINK-3325,1 50843U 22001AS  24197.84083826  .00000815  00000-0  69269-4 0  9997,2 50843  53.2193   0.9271 0001351  87.2284 272.8863 15.08843394140607,6917.87,95.437,540.67,538.8,0.0
50843.0,STARLINK-3325,PAYLOAD,2024-07-16 10:29:16,15.08841566,0.0001493,53.2185,358.2506,89.0739,271.0424,6.8771e-05,8.07e-06,0.0,0 STARLINK-3325,1 50843U 22001AS  24198.43699967  .00000807  00000-0  68771-4 0  9990,2 50843  53.2185 358.2506 0001493  89.0739 271.0424 15.08841566139498,6917.876,95.437,540.773,538.708,0.0
50843.0,STARLINK-3325,PAYLOAD,2024-07-16 16:50:48,15.08847897,0.0001192,53.2179,357.0635,83.8053,276.3075,0.00012316,1.673e-05,0.0,0 STARLINK-3325,1 50843U 22001AS  24198.70195238  .00001673  00000-0  12316-3 0  9997,2 50843  53.2179 357.0635 0001192  83.8053 276.3075 15.08847897139536,6917.856,95.437,540.546,538.897,0.0
50843.0,STARLINK-3325,PAYLOAD,2024-07-17 03:58:30,15.08852036,0.0001219,53.2171,354.984,69.9594,290.1529,5.818e-05,6.38e-06,0.0,0 STARLINK-3325,1 50843U 22001AS  24199.16563047  .00000638  00000-0  58180-4 0  9995,2 50843  53.2171 354.9840 0001219  69.9594 290.1529 15.08852036140808,6917.844,95.437,540.552,538.865,0.0
50843.0,STARLINK-3325,PAYLOAD,2024-07-17 16:41:36,15.0883938,0.0001497,53.2191,352.6004,82.7237,277.3925,4.1592e-05,3.74e-06,0.0,0 STARLINK-3325,1 50843U 22001AS  24199.69555971  .00000374  00000-0  41592-4 0  9996,2 50843  53.2191 352.6004 0001497  82.7237 277.3925 15.08839380140884,6917.882,95.438,540.783,538.712,0.0
50843.0,STARLINK-3325,PAYLOAD,2024-07-18 13:21:37,15.08843745,0.000142,53.2196,348.7343,111.5835,248.5308,-7.3884e-05,-1.464e-05,0.0,0 STARLINK-3325,1 50843U 22001AS  24200.55668106 -.00001464  00000-0 -73884-4 0  9991,2 50843  53.2196 348.7343 0001420 111.5835 248.5308 15.08843745139818,6917.869,95.437,540.716,538.752,0.0
50843.0,STARLINK-3325,PAYLOAD,2024-07-18 16:32:23,15.08847536,0.0001438,53.2202,348.1393,108.883,251.2318,-5.5789e-05,-1.176e-05,0.0,0 STARLINK-3325,1 50843U 22001AS  24200.68915852 -.00001176  00000-0 -55789-4 0  9992,2 50843  53.2202 348.1393 0001438 108.8830 251.2318 15.08847536139834,6917.857,95.437,540.717,538.728,0.0
50843.0,STARLINK-3325,PAYLOAD,2024-07-19 13:12:24,15.0883861,0.0001472,53.2204,344.2739,84.098,276.018,0.00011641,1.565e-05,0.0,0 STARLINK-3325,1 50843U 22001AS  24201.55027991  .00001565  00000-0  11641-3 0  9995,2 50843  53.2204 344.2739 0001472  84.0980 276.0180 15.08838610141160,6917.885,95.438,540.768,538.731,0.0
